STARLINK-5509           
1 57263U 23094AX  24048.63163969  .00005747  00000+0  44001-3 0  9996
2 57263  43.0013 151.1683 0001237 262.3555  97.7147 15.02547833 34147
STARLINK-5858           
1 57264U 23094AY  24048.56209736 -.00003657  00000+0 -25574-3 0  9996
2 57264  43.0012 138.5005 0000826 276.6094  83.4654 15.02541801 34462
STARLINK-5890           
1 57265U 23094AZ  24048.55987632  .00002750  00000+0  21853-3 0  9991
2 57265  43.0027 138.4823 0001090 285.3578  74.7144 15.02539685 34288
STARLINK-30198          
1 57290U 23096A   24048.22870221 -.00001130  00000+0 -68597-4 0  9990
2 57290  43.0009 346.7799 0001302 266.0320  94.0373 15.02540634 33474
STARLINK-30239          
1 57291U 23096B   24048.82366639  .00002281  00000+0  18382-3 0  9992
2 57291  43.0000 343.4999 0001306 214.3616 145.7142 15.02542896 34662
STARLINK-30210          
1 57292U 23096C   24048.82033873  .00001199  00000+0  10379-3 0  9999
2 57292  43.0031 343.4795 0001345 264.3326  95.7363 15.02543138 34543
STARLINK-30202          
1 57293U 23096D   24048.77377589  .00046225  00000+0  20578-2 0  9999
2 57293  43.0007 326.1805 0020865 190.1458 169.8972 15.20562899 34866
STARLINK-30235          
1 57294U 23096E   24048.88015736  .00002662  00000+0  21202-3 0  9998
2 57294  42.9999 343.0638 0001157 225.6427 134.4320 15.02541539 34672
STARLINK-30206          
1 57295U 23096F   24047.96611353  .00007249  00000+0  55107-3 0  9991
2 57295  43.0027 348.2145 0000962 238.8525 121.2223 15.02542611 34538
STARLINK-30238          
1 57296U 23096G   24048.87682889  .00029112  00000+0  21601-2 0  9999
2 57296  43.0035 343.0428 0001269 235.2027 124.8696 15.02554942 34694
STARLINK-30234          
1 57297U 23096H   24048.87350210  .00005065  00000+0  38971-3 0  9990
2 57297  42.9980 343.0135 0000594 255.7776 104.3001 15.02537619 34678
STARLINK-30241          
1 57298U 23096J   24048.84686183  .00002674  00000+0  21298-3 0  9996
2 57298  43.0054 342.8010 0000896 277.2228  82.8512 15.02532902 34675
STARLINK-30199          
1 57299U 23096K   24048.87016967  .00008369  00000+0  63380-3 0  9992
2 57299  43.0020 342.9923 0001091 272.9945  87.0773 15.02541492 34679
STARLINK-30236          
1 57300U 23096L   24048.80036226  .00005292  00000+0  40648-3 0  9992
2 57300  43.0002 343.3266 0000871 258.3374 101.7370 15.02538348 34703
STARLINK-30201          
1 57301U 23096M   24048.79703515  .00006022  00000+0  46035-3 0  9991
2 57301  42.9998 343.3043 0000273 324.1188  35.9636 15.02545597 33762
STARLINK-30233          
1 57302U 23096N   24048.79369710  .00002959  00000+0  23398-3 0  9999
2 57302  42.9999 343.2527 0000896 312.4728  47.6038 15.02544423 33764
STARLINK-30232          
1 57303U 23096P   24048.79037383  .00007829  00000+0  59381-3 0  9990
2 57303  42.9994 343.2615 0000935 293.2573  66.8171 15.02544271 34523
STARLINK-30211          
1 57304U 23096Q   24048.85351963  .00005274  00000+0  40515-3 0  9992
2 57304  43.0043 342.8573 0000644 252.8133 107.2639 15.02542901 33772
STARLINK-30177          
1 57305U 23096R   24048.91666778  .00003687  00000+0  28784-3 0  9993
2 57305  43.0030 342.4761 0001330 258.1033 101.9661 15.02539189 33786
STARLINK-30200          
1 57306U 23096S   24048.85464634 -.00026238  00000+0 -19376-2 0  9999
2 57306  43.0020 342.8648 0002502 288.2010  71.8560 15.02473219 33778
STARLINK-30209          
1 57307U 23096T   24048.84351980 -.00011418  00000+0 -83213-3 0  9994
2 57307  42.9996 342.7757 0001188 284.7051  75.3660 15.02508837 33779
STARLINK-30194          
1 57308U 23096U   24048.50780770  .00003156  00000+0  24856-3 0  9997
2 57308  43.0041 344.5705 0001415 259.2102 100.8581 15.02542968 33716
STARLINK-30163          
1 57309U 23096V   24048.90335193 -.00002388  00000+0 -16173-3 0  9998
2 57309  43.0026 342.3804 0001155 259.3986 100.6726 15.02539898 33771
STARLINK-30184          
1 57310U 23096W   24048.71776969  .00011093  00000+0  83466-3 0  9999
2 57310  43.0002 317.7034 0000693 265.8977  94.1787 15.02550433 34050
STARLINK-30175          
1 57311U 23096X   24048.83354336  .00003827  00000+0  29814-3 0  9996
2 57311  43.0009 342.7166 0000601 272.3379  87.7395 15.02543333 33772
STARLINK-6290           
1 57328U 23099A   24048.29684746  .00001898  00000+0  15550-3 0  9996
2 57328  43.0034  12.1749 0000967 275.1229  84.9503 15.02540375 33990
STARLINK-6138           
1 57329U 23099B   24048.61924447  .00001098  00000+0  96351-4 0  9999
2 57329  43.0023  10.2951 0001019 277.1186  82.9541 15.02541367 33134
STARLINK-6212           
1 57330U 23099C   24048.89181837  .00001787  00000+0  14736-3 0  9990
2 57330  43.0037   8.8951 0001064 264.9668  95.1052 15.02532988 33179
STARLINK-6234           
1 57331U 23099D   24048.29240993  .00001034  00000+0  91591-4 0  9994
2 57331  43.0041  12.1420 0001304 267.3130  92.7563 15.02537491 33086
STARLINK-5831           
1 57332U 23099E   24048.88848469  .00017262  00000+0  12890-2 0  9995
2 57332  43.0053   8.8714 0001248 276.5683  83.5018 15.02558497 33172
STARLINK-5585           
1 57333U 23099F   24048.88737757  .00001593  00000+0  13292-3 0  9991
2 57333  43.0034   8.8630 0000976 274.6494  85.4237 15.02539794 33178
STARLINK-5589           
1 57334U 23099G   24048.88182710  .00003988  00000+0  31002-3 0  9994
2 57334  43.0055   8.8246 0001004 280.2465  79.8264 15.02544432 33171
STARLINK-6316           
1 57335U 23099H   24048.93720774  .00021396  00000+0  15941-2 0  9995
2 57335  43.0045   8.3787 0001098 278.8206  81.2512 15.02536431 33189
STARLINK-6320           
1 57336U 23099J   24048.90723763  .00000971  00000+0  86972-4 0  9994
2 57336  43.0049   8.1397 0001177 264.0406  96.0302 15.02529806 33185
STARLINK-6322           
1 57337U 23099K   24048.87738814  .00005726  00000+0  43855-3 0  9999
2 57337  43.0050   8.7881 0001233 262.4525  97.6178 15.02541843 33171
STARLINK-6374           
1 57338U 23099L   24048.87405776  .00002107  00000+0  17097-3 0  9997
2 57338  43.0048   8.7639 0001286 265.9019  94.1676 15.02539911 33172
STARLINK-6332           
1 57339U 23099M   24048.87849621  .00003324  00000+0  26100-3 0  9996
2 57339  43.0051   8.7997 0001147 261.8387  98.2325 15.02542039 33174
STARLINK-6321           
1 57340U 23099N   24048.86184102  .00019795  00000+0  14751-2 0  9990
2 57340  43.0041   8.6669 0001291 273.3367  86.7328 15.02567473 33170
STARLINK-6377           
1 57341U 23099P   24048.93387610  .00002542  00000+0  20314-3 0  9993
2 57341  43.0059   8.3512 0001189 273.0838  86.9868 15.02541261 33189
STARLINK-6375           
1 57342U 23099Q   24048.91167796  .00002983  00000+0  23576-3 0  9995
2 57342  43.0034   8.1839 0000477 346.8676  13.2154 15.02541210 33186
STARLINK-6379           
1 57343U 23099R   24048.93054548  .00000885  00000+0  80582-4 0  9998
2 57343  43.0063   8.3266 0001322 256.6255 103.4440 15.02539182 33181
STARLINK-6380           
1 57344U 23099S   24048.58927594  .00000662  00000+0  64102-4 0  9993
2 57344  43.0050  10.0582 0001291 267.9817  92.0878 15.02537227 33134
STARLINK-6373           
1 57345U 23099T   24048.85851923  .00000408  00000+0  45246-4 0  9992
2 57345  43.0058   8.6435 0001045 273.9086  86.1637 15.02539190 33177
STARLINK-6359           
1 57346U 23099U   24048.90501572  .00000493  00000+0  51548-4 0  9997
2 57346  43.0019   8.1376 0000817 231.5780 128.4989 15.02538576 33189
STARLINK-6378           
1 57347U 23099V   24048.58483893  .00009591  00000+0  72405-3 0  9999
2 57347  43.0041  10.0327 0001143 263.2990  96.7722 15.02537779 33132
STARLINK-6372           
1 57348U 23099W   24048.89946869  .00002251  00000+0  18165-3 0  9990
2 57348  43.0038   8.0924 0001089 272.8533  87.2185 15.02536969 33180
STARLINK-6376           
1 57349U 23099X   24048.56929869  .00003742  00000+0  29190-3 0  9992
2 57349  43.0028   9.9148 0001043 263.8596  96.2128 15.02543406 33852
STARLINK-6362           
1 57350U 23099Y   24048.90761227  .00001729  00000+0  14307-3 0  9991
2 57350  43.0040 355.9885 0001158 274.1683  85.9027 15.02532662 33326
STARLINK-6331           
1 57351U 23099Z   24048.23358141  .00002525  00000+0  20189-3 0  9995
2 57351  43.0048  11.6982 0001234 276.9552  83.1150 15.02539933 33087
STARLINK-6297           
1 57352U 23099AA  24048.83447539  .00001337  00000+0  11402-3 0  9990
2 57352  43.0037 356.3004 0000987 280.9353  79.1378 15.02535282 33314
STARLINK-6324           
1 57353U 23099AB  24048.29783629  .00000729  00000+0  69055-4 0  9996
2 57353  43.0046  11.3194 0001151 271.8499  88.2212 15.02542865 33095
STARLINK-6293           
1 57354U 23099AC  24048.89207308  .00001584  00000+0  13226-3 0  9996
2 57354  43.0040 355.8719 0000867 259.5670 100.5075 15.02538914 33327
STARLINK-6276           
1 57355U 23099AD  24048.57189321 -.00000431  00000+0 -16817-4 0  9998
2 57355  43.0042 357.7708 0000894 281.9685  78.1057 15.02535545 33275
STARLINK-6355           
1 57356U 23099AE  24048.89096236  .00000450  00000+0  48366-4 0  9999
2 57356  43.0034 355.8628 0000843 293.6837  66.3917 15.02537110 33320
STARLINK-5600           
1 57357U 23099AF  24048.83225313  .00005707  00000+0  43711-3 0  9992
2 57357  43.0029 356.2824 0000952 274.4565  85.6168 15.02545477 33310
STARLINK-6299           
1 57358U 23099AG  24048.55302424  .00003796  00000+0  29590-3 0  9996
2 57358  43.0033 357.6260 0001175 253.9781 106.0932 15.02541324 34017
STARLINK-6347           
1 57359U 23099AH  24048.56967649  .00000285  00000+0  36159-4 0  9994
2 57359  43.0037 357.7533 0000980 281.1993  78.8739 15.02535175 33272
STARLINK-6348           
1 57360U 23099AJ  24048.54636682  .00000914  00000+0  82746-4 0  9996
2 57360  43.0054 357.5765 0001298 271.4146  88.6548 15.02536951 34016
STARLINK-6340           
1 57361U 23099AK  24048.82115503  .00005419  00000+0  41579-3 0  9995
2 57361  43.0032 356.1989 0000901 278.5437  81.5303 15.02543771 33318
